[{"OBJECT_NAME":"PRAETORIAN SDA_616","OBJECT_ID":"2025-203Q","EPOCH":"2026-04-27T06:42:35.290368","MEAN_MOTION":13.83317596,"ECCENTRICITY":0.00054783,"INCLINATION":81.307,"RA_OF_ASC_NODE":58.1273,"ARG_OF_PERICENTER":353.7193,"MEAN_ANOMALY":6.3894,"EPHEMERIS_TYPE":0,"CLASSIFICATION_TYPE":"U","NORAD_CAT_ID":65579,"ELEMENT_SET_NO":999,"REV_AT_EPOCH":3164,"BSTAR":0.00016101922,"MEAN_MOTION_DOT":1.89e-6,"MEAN_MOTION_DDOT":0},{"OBJECT_NAME":"PRAETORIAN SDA_617","OBJECT_ID":"2025-203R","EPOCH":"2026-04-27T05:22:57.218304","MEAN_MOTION":13.83197154,"ECCENTRICITY":0.00072855,"INCLINATION":81.3044,"RA_OF_ASC_NODE":58.0138,"ARG_OF_PERICENTER":339.6339,"MEAN_ANOMALY":20.4525,"EPHEMERIS_TYPE":0,"CLASSIFICATION_TYPE":"U","NORAD_CAT_ID":65580,"ELEMENT_SET_NO":999,"REV_AT_EPOCH":3164,"BSTAR":4.7661829e-5,"MEAN_MOTION_DOT":6.4e-7,"MEAN_MOTION_DDOT":0},{"OBJECT_NAME":"PRAETORIAN SDA_618","OBJECT_ID":"2025-203S","EPOCH":"2026-04-27T06:07:20.029152","MEAN_MOTION":13.8476733,"ECCENTRICITY":0.00095708,"INCLINATION":81.3031,"RA_OF_ASC_NODE":57.6994,"ARG_OF_PERICENTER":338.1676,"MEAN_ANOMALY":21.9072,"EPHEMERIS_TYPE":0,"CLASSIFICATION_TYPE":"U","NORAD_CAT_ID":65581,"ELEMENT_SET_NO":999,"REV_AT_EPOCH":3166,"BSTAR":0.00016505013,"MEAN_MOTION_DOT":1.98e-6,"MEAN_MOTION_DDOT":0},{"OBJECT_NAME":"PRAETORIAN SDA_619","OBJECT_ID":"2025-203T","EPOCH":"2026-04-27T06:14:32.101728","MEAN_MOTION":13.83937072,"ECCENTRICITY":0.00078243,"INCLINATION":81.3054,"RA_OF_ASC_NODE":57.9129,"ARG_OF_PERICENTER":337.4844,"MEAN_ANOMALY":22.5969,"EPHEMERIS_TYPE":0,"CLASSIFICATION_TYPE":"U","NORAD_CAT_ID":65582,"ELEMENT_SET_NO":999,"REV_AT_EPOCH":3228,"BSTAR":0.00018862308,"MEAN_MOTION_DOT":2.21e-6,"MEAN_MOTION_DDOT":0},{"OBJECT_NAME":"PRAETORIAN SDA_620","OBJECT_ID":"2025-203U","EPOCH":"2026-04-27T06:40:04.994976","MEAN_MOTION":13.8361274,"ECCENTRICITY":0.00073251,"INCLINATION":81.3038,"RA_OF_ASC_NODE":57.9029,"ARG_OF_PERICENTER":335.0711,"MEAN_ANOMALY":25.0091,"EPHEMERIS_TYPE":0,"CLASSIFICATION_TYPE":"U","NORAD_CAT_ID":65583,"ELEMENT_SET_NO":999,"REV_AT_EPOCH":3165,"BSTAR":0.0001935247,"MEAN_MOTION_DOT":2.25e-6,"MEAN_MOTION_DDOT":0},{"OBJECT_NAME":"PRAETORIAN SDA_621","OBJECT_ID":"2025-203V","EPOCH":"2026-04-27T06:11:57.754176","MEAN_MOTION":13.83792973,"ECCENTRICITY":0.00070811,"INCLINATION":81.3028,"RA_OF_ASC_NODE":57.8581,"ARG_OF_PERICENTER":333.3193,"MEAN_ANOMALY":26.7598,"EPHEMERIS_TYPE":0,"CLASSIFICATION_TYPE":"U","NORAD_CAT_ID":65584,"ELEMENT_SET_NO":999,"REV_AT_EPOCH":3165,"BSTAR":5.0203622e-5,"MEAN_MOTION_DOT":6.7e-7,"MEAN_MOTION_DDOT":0},{"OBJECT_NAME":"PRAETORIAN SDA_601","OBJECT_ID":"2025-203W","EPOCH":"2026-04-27T06:45:46.632672","MEAN_MOTION":13.83423677,"ECCENTRICITY":0.00055485,"INCLINATION":81.3041,"RA_OF_ASC_NODE":58.0822,"ARG_OF_PERICENTER":353.5615,"MEAN_ANOMALY":6.5469,"EPHEMERIS_TYPE":0,"CLASSIFICATION_TYPE":"U","NORAD_CAT_ID":65585,"ELEMENT_SET_NO":999,"REV_AT_EPOCH":3164,"BSTAR":0.00022061228,"MEAN_MOTION_DOT":2.54e-6,"MEAN_MOTION_DDOT":0}]
