PRAETORIAN SDA_616      
1 65579U 25203Q   26117.27957512  .00000189  00000+0  16102-3 0  9999
2 65579  81.3070  58.1273 0005478 353.7193   6.3894 13.83317596 31644
PRAETORIAN SDA_617      
1 65580U 25203R   26117.22427336  .00000064  00000+0  47662-4 0  9990
2 65580  81.3044  58.0138 0007285 339.6339  20.4525 13.83197154 31643
PRAETORIAN SDA_618      
1 65581U 25203S   26117.25509293  .00000198  00000+0  16505-3 0  9996
2 65581  81.3031  57.6994 0009570 338.1676  21.9072 13.84767330 31667
PRAETORIAN SDA_619      
1 65582U 25203T   26117.26009377  .00000221  00000+0  18862-3 0  9991
2 65582  81.3054  57.9129 0007824 337.4844  22.5969 13.83937072 32287
PRAETORIAN SDA_620      
1 65583U 25203U   26117.27783559  .00000225  00000+0  19352-3 0  9993
2 65583  81.3038  57.9029 0007325 335.0711  25.0091 13.83612740 31658
PRAETORIAN SDA_621      
1 65584U 25203V   26117.25830734  .00000067  00000+0  50204-4 0  9996
2 65584  81.3028  57.8581 0007081 333.3193  26.7598 13.83792973 31651
PRAETORIAN SDA_601      
1 65585U 25203W   26117.28178973  .00000254  00000+0  22061-3 0  9997
2 65585  81.3041  58.0822 0005548 353.5615   6.5469 13.83423677 31641
